{
  "type": "FeatureCollection",
  "features": [
    {
      "type": "Feature",
      "properties": {
        "norad_id": 40376,
        "name": "SMAP",
        "group": "resource",
        "lat": -40.94248789513173,
        "lon": 9.17426675767474,
        "alt_km": 689.4939374767864,
        "timestamp": "2025-12-23T11:34:47.839178+00:00",
        "meta_object_name": "SMAP",
        "meta_object_id": "2015-003A",
        "meta_epoch": "2025-12-23T03:33:49.734720",
        "meta_mean_motion": 14.63357429,
        "meta_eccentricity": 0.000123,
        "meta_inclination": 98.1289,
        "meta_ra_of_asc_node": 1.7223,
        "meta_arg_of_pericenter": 91.7952,
        "meta_mean_anomaly": 268.3391,
        "meta_ephemeris_type": 0,
        "meta_classification_type": "U",
        "meta_norad_cat_id": 40376,
        "meta_element_set_no": 999,
        "meta_rev_at_epoch": 58187,
        "meta_bstar": 0.0001077,
        "meta_mean_motion_dot": 5.09e-06,
        "meta_mean_motion_ddot": 0,
        "tle_line1": "1 40376U 15003A   25357.14849230  .00000509  00000+0  10770-3 0  9993",
        "tle_line2": "2 40376  98.1289   1.7223 0001230  91.7952 268.3391 14.63357429581878"
      },
      "geometry": {
        "type": "Point",
        "coordinates": [
          9.17426675767474,
          -40.94248789513173
        ]
      }
    },
    {
      "type": "Feature",
      "properties": {
        "norad_id": 40536,
        "name": "KOMPSAT-3A",
        "group": "resource",
        "lat": -68.39466646199853,
        "lon": 132.5028863206913,
        "alt_km": 443.844137639182,
        "timestamp": "2025-12-23T11:34:47.839187+00:00",
        "meta_object_name": "KOMPSAT-3A",
        "meta_object_id": "2015-014A",
        "meta_epoch": "2025-12-23T04:16:54.916896",
        "meta_mean_motion": 15.44311644,
        "meta_eccentricity": 0.000559,
        "meta_inclination": 97.6801,
        "meta_ra_of_asc_node": 332.1041,
        "meta_arg_of_pericenter": 103.7156,
        "meta_mean_anomaly": 256.4714,
        "meta_ephemeris_type": 0,
        "meta_classification_type": "U",
        "meta_norad_cat_id": 40536,
        "meta_element_set_no": 999,
        "meta_rev_at_epoch": 59456,
        "meta_bstar": 0.00045462,
        "meta_mean_motion_dot": 0.00020885,
        "meta_mean_motion_ddot": 0,
        "tle_line1": "1 40536U 15014A   25357.17841339  .00020885  00000+0  45462-3 0  9993",
        "tle_line2": "2 40536  97.6801 332.1041 0005590 103.7156 256.4714 15.44311644594568"
      },
      "geometry": {
        "type": "Point",
        "coordinates": [
          132.5028863206913,
          -68.39466646199853
        ]
      }
    },
    {
      "type": "Feature",
      "properties": {
        "norad_id": 40697,
        "name": "SENTINEL-2A",
        "group": "resource",
        "lat": 10.400742495180134,
        "lon": 68.27789383805457,
        "alt_km": 790.3483773024227,
        "timestamp": "2025-12-23T11:34:47.839196+00:00",
        "meta_object_name": "SENTINEL-2A",
        "meta_object_id": "2015-028A",
        "meta_epoch": "2025-12-23T04:49:03.376128",
        "meta_mean_motion": 14.3080886,
        "meta_eccentricity": 0.0001052,
        "meta_inclination": 98.5736,
        "meta_ra_of_asc_node": 69.5868,
        "meta_arg_of_pericenter": 88.9865,
        "meta_mean_anomaly": 271.1438,
        "meta_ephemeris_type": 0,
        "meta_classification_type": "U",
        "meta_norad_cat_id": 40697,
        "meta_element_set_no": 999,
        "meta_rev_at_epoch": 54856,
        "meta_bstar": 1.0009e-05,
        "meta_mean_motion_dot": -1.7e-07,
        "meta_mean_motion_ddot": 0,
        "tle_line1": "1 40697U 15028A   25357.20073352 -.00000017  00000+0  10009-4 0  9998",
        "tle_line2": "2 40697  98.5736  69.5868 0001052  88.9865 271.1438 14.30808860548562"
      },
      "geometry": {
        "type": "Point",
        "coordinates": [
          68.27789383805457,
          10.400742495180134
        ]
      }
    },
    {
      "type": "Feature",
      "properties": {
        "norad_id": 40701,
        "name": "GAOFEN-8",
        "group": "resource",
        "lat": -80.2499388831372,
        "lon": -55.70529886690283,
        "alt_km": 464.10203057646504,
        "timestamp": "2025-12-23T11:34:47.839205+00:00",
        "meta_object_name": "GAOFEN-8",
        "meta_object_id": "2015-030A",
        "meta_epoch": "2025-12-23T05:45:18.550656",
        "meta_mean_motion": 15.38870522,
        "meta_eccentricity": 0.0011364,
        "meta_inclination": 97.6907,
        "meta_ra_of_asc_node": 175.8941,
        "meta_arg_of_pericenter": 102.2521,
        "meta_mean_anomaly": 257.9997,
        "meta_ephemeris_type": 0,
        "meta_classification_type": "U",
        "meta_norad_cat_id": 40701,
        "meta_element_set_no": 999,
        "meta_rev_at_epoch": 58432,
        "meta_bstar": 0.0018683,
        "meta_mean_motion_dot": 0.00072496,
        "meta_mean_motion_ddot": 0,
        "tle_line1": "1 40701U 15030A   25357.23979804  .00072496  00000+0  18683-2 0  9990",
        "tle_line2": "2 40701  97.6907 175.8941 0011364 102.2521 257.9997 15.38870522584326"
      },
      "geometry": {
        "type": "Point",
        "coordinates": [
          -55.70529886690283,
          -80.2499388831372
        ]
      }
    },
    {
      "type": "Feature",
      "properties": {
        "norad_id": 40718,
        "name": "CARBONITE 1 (CBNT-1)",
        "group": "resource",
        "lat": -14.707941888945097,
        "lon": -3.965495224419179,
        "alt_km": 618.1518349926091,
        "timestamp": "2025-12-23T11:34:47.839214+00:00",
        "meta_object_name": "CARBONITE 1 (CBNT-1)",
        "meta_object_id": "2015-032D",
        "meta_epoch": "2025-12-23T04:13:37.936128",
        "meta_mean_motion": 14.82786624,
        "meta_eccentricity": 0.0015146,
        "meta_inclination": 97.6394,
        "meta_ra_of_asc_node": 177.7608,
        "meta_arg_of_pericenter": 147.8304,
        "meta_mean_anomaly": 212.3837,
        "meta_ephemeris_type": 0,
        "meta_classification_type": "U",
        "meta_norad_cat_id": 40718,
        "meta_element_set_no": 999,
        "meta_rev_at_epoch": 56325,
        "meta_bstar": 0.0001771,
        "meta_mean_motion_dot": 1.384e-05,
        "meta_mean_motion_ddot": 0,
        "tle_line1": "1 40718U 15032D   25357.17613352  .00001384  00000+0  17710-3 0  9995",
        "tle_line2": "2 40718  97.6394 177.7608 0015146 147.8304 212.3837 14.82786624563255"
      },
      "geometry": {
        "type": "Point",
        "coordinates": [
          -3.965495224419179,
          -14.707941888945097
        ]
      }
    },
    {
      "type": "Feature",
      "properties": {
        "norad_id": 40878,
        "name": "YAOGAN-27",
        "group": "resource",
        "lat": -62.175681288354696,
        "lon": 6.35488818357109,
        "alt_km": 1202.2417090345307,
        "timestamp": "2025-12-23T11:34:47.839223+00:00",
        "meta_object_name": "YAOGAN-27",
        "meta_object_id": "2015-040A",
        "meta_epoch": "2025-12-23T04:36:21.868128",
        "meta_mean_motion": 13.16060996,
        "meta_eccentricity": 0.0007555,
        "meta_inclination": 100.101,
        "meta_ra_of_asc_node": 346.3389,
        "meta_arg_of_pericenter": 260.8002,
        "meta_mean_anomaly": 99.2258,
        "meta_ephemeris_type": 0,
        "meta_classification_type": "U",
        "meta_norad_cat_id": 40878,
        "meta_element_set_no": 999,
        "meta_rev_at_epoch": 49451,
        "meta_bstar": 0.00076747,
        "meta_mean_motion_dot": 2.49e-06,
        "meta_mean_motion_ddot": 0,
        "tle_line1": "1 40878U 15040A   25357.19191977  .00000249  00000+0  76747-3 0  9991",
        "tle_line2": "2 40878 100.1010 346.3389 0007555 260.8002  99.2258 13.16060996494517"
      },
      "geometry": {
        "type": "Point",
        "coordinates": [
          6.35488818357109,
          -62.175681288354696
        ]
      }
    },
    {
      "type": "Feature",
      "properties": {
        "norad_id": 40894,
        "name": "GAOFEN-9 01",
        "group": "resource",
        "lat": 75.04688957392321,
        "lon": -113.79774781225468,
        "alt_km": 618.8444979112282,
        "timestamp": "2025-12-23T11:34:47.839232+00:00",
        "meta_object_name": "GAOFEN-9 01",
        "meta_object_id": "2015-047A",
        "meta_epoch": "2025-12-23T04:38:21.467328",
        "meta_mean_motion": 14.82446976,
        "meta_eccentricity": 0.0027538,
        "meta_inclination": 97.6529,
        "meta_ra_of_asc_node": 35.6967,
        "meta_arg_of_pericenter": 0.57,
        "meta_mean_anomaly": 359.5541,
        "meta_ephemeris_type": 0,
        "meta_classification_type": "U",
        "meta_norad_cat_id": 40894,
        "meta_element_set_no": 999,
        "meta_rev_at_epoch": 55411,
        "meta_bstar": 0.00013993,
        "meta_mean_motion_dot": 1.078e-05,
        "meta_mean_motion_ddot": 0,
        "tle_line1": "1 40894U 15047A   25357.19330402  .00001078  00000+0  13993-3 0  9999",
        "tle_line2": "2 40894  97.6529  35.6967 0027538   0.5700 359.5541 14.82446976554117"
      },
      "geometry": {
        "type": "Point",
        "coordinates": [
          -113.79774781225468,
          75.04688957392321
        ]
      }
    }
  ]
}